[{"OBJECT_NAME":"STARLINK-35225","OBJECT_ID":"2025-210E","EPOCH":"2026-03-09T21:26:51.073152","MEAN_MOTION":15.30213363,"ECCENTRICITY":7.484e-5,"INCLINATION":53.1584,"RA_OF_ASC_NODE":306.0415,"ARG_OF_PERICENTER":126.8605,"MEAN_ANOMALY":233.2465,"EPHEMERIS_TYPE":0,"CLASSIFICATION_TYPE":"U","NORAD_CAT_ID":65626,"ELEMENT_SET_NO":999,"REV_AT_EPOCH":2776,"BSTAR":0.00094892243,"MEAN_MOTION_DOT":0.00027862,"MEAN_MOTION_DDOT":0},{"OBJECT_NAME":"COSMOS 1975","OBJECT_ID":"1988-093A","EPOCH":"2026-03-09T14:15:08.474112","MEAN_MOTION":15.28069249,"ECCENTRICITY":0.0012117,"INCLINATION":82.5181,"RA_OF_ASC_NODE":117.7814,"ARG_OF_PERICENTER":163.8427,"MEAN_ANOMALY":196.3201,"EPHEMERIS_TYPE":0,"CLASSIFICATION_TYPE":"U","NORAD_CAT_ID":19573,"ELEMENT_SET_NO":999,"REV_AT_EPOCH":1939,"BSTAR":0.0002787,"MEAN_MOTION_DOT":7.676e-5,"MEAN_MOTION_DDOT":0}]
